id,Escola,Município,Endereço,Terra Indigena (TI),Escola Estadual ou Municipal,Parcerias com o município,Diretoria de Ensino,Povos indigenas,Linguas faladas,Ano de criação da escola,Modalidade de Ensino/turnos de funcionamento,Numero de alunos,Espaço escolar e estrutura,Acesso à água,Tem coleta de lixo?,Acesso à internet,Equipamentos Tecs,Modo de acesso à escola,Gestão/Nome,Outros funcionários,Quantidade de professores indígenas,Quantidade de professores não indígenas,Professores falam a língua indígena?,Formação dos professores,Formação continuada oferecida,A escola possui PPP próprio?,PPP elaborado com a comunidade?,Material pedagógico não indígena,Material pedagógico indígena,Práticas pedagógicas indígenas,Formas de avaliação,Projetos em andamento,Parcerias com universidades?,Ações com ONGs ou coletivos?,Desejos da comunidade para a escola,Escola utiliza redes sociais?,Links das redes sociais,historia_da_escola,Latitude,Longitude,link_para_videos,logradouro,numero,complemento,bairro,cep,estado,turnos_funcionamento,Cozinha,Merenda_escolar,diferenciada,imagem_header
9,E. E. I. Aldeia Kopenoti,Avaí,"Avaí, SP",Arariba,Estadual,Contratação de merendeiras e merenda escolar,Bauru,Terena e Kaigang,Terena e Português,2003,"Educação Infantil (Pré-escola I e Pré-escola II) – 1 sala multisseriada
Ensino Fundamental – Anos Iniciais (1º ano) – 1 sala regular
Ensino Fundamental – Anos Iniciais (2º e 3º anos) – 1 sala multisseriada
Ensino Fundamental – Anos Iniciais (4º e 5º anos) – 1 sala multisseriada
Ensino Fundamental – Anos Finais (6º e 7º anos) – 1 sala multisseriada
Ensino Fundamental – Anos Finais (8º e 9º anos) – 1 sala multisseriada
Ensino Médio (1º e 2º anos) – 1 sala multisseriada
Ensino Médio (3º ano) – 1 sala regular
Ensino Médio – EJA (1º ao 3º ano) – 1 sala multisseriada
Turnos: Diurno, Tarde e Noite",59,"Quatro salas de aula, uma sala de informática, uma cozinha, uma sala de secretaria, ar-condicionado, um banheiro para professores e dois banheiros para os alunos. Ao lado, há uma casa construída pelos moradores da aldeia, que contém uma sala de livros, uma sala dos professores e uma brinquedoteca.",Sim,Sim,Sim,"Computador, tablet, impressora, TV e notebook",A pé e/ou de carro ou moto,"Vice-diretora/Daniela Araujo da Silva Machado
Duas Coordenadoras/ Marcia Pio e Maria Luiza","Três merendeiras, um Proat e um auxiliar de limpeza",10,0,Sim,"Sim/professores formados em pedagogia, letras, história, educação física, geografia e outros em formação","Sim/Oferecidq pelo PAPE (sobre omo usar os materiais digitais, ensino das plataformas digitais, livros didáticos digitais)",Sim,Sim,"Livros didáticos, Multimidia (Apostilas e cadernos digitais oferecidos pelo Estado - Seduc)",Sim (livros produzidos pela própria comunidade na língua Terena),"Visitas com os mais velhos, caminhada na mata, plantio de árvores nativas e frutíferas, coleta de sementes, produção de artesanatos, limpeza da represa e brincadeiras tradicionais (corrida com tora, arco e flecha).",Avaliação de participação e desempenho dos alunos e aplicação de provas.,Não,"Unisagrado – Oferta de bolsas em cursos de graduação 
UNIFESP – Licenciatura Intercultural Indígena","Parceria com o SESC para fornecimento de produtos de higiene, frutas e doces às crianças da escola.",Transporte escolar para as crianças que percorrem 4 km até a escola e cobertura da quadra.,Não,-,,-22.2653098,-49.3482486,,,,,,,SP,"Diurno, Tarde e Noite",Sim,Sim,Não,
3,E. E. I. Aldeia Djaiko Aty,Miracatu,"Miracatu, SP",Djaiko-aty,Estadual,Não,Miracatu,Tupi Guarani,Tupi Guarani e Português,2005,Educação Infantil (Pré-escola I) – 1 sala regularEnsino Fundamental – Anos Iniciais (1º ao 5º ano) – 1 sala multisseriadaEnsino Fundamental – Anos Finais (6º ao 9º ano) – 1 sala multisseriadaEnsino Médio (1º ao 3º ano) – 1 sala multisseriada,7,"Duas salas de aula, uma sala de computação, três banheiros, uma sala para secretaria, uma sala para diretoria, um depósito, uma cozinha e um pátio/refeitório.",Sim,Sim,Sim,"Computador, tablet, TV e notebook",A pé,Vice-Diretora/ Sara Silva Rosário,Uma merendeira e uma agente de limpeza,4,1,Sim,Não/Em formação,Sim/Diretoria de Ensino (orientação técnica),Sim,Sim,"Livros didáticos, Multimidia (Apostilas e cadernos digitais oferecidos pelo Estado - Seduc)",Sim (cartilhas na língua guarani),"Contação de histórias, cantos, danças, plantio, produção de artesanato",Avaliação de participação e desempenho dos alunos,"Projeto de plantio de plantas medicinais, hortaliças e verduras.",UNIFESP - Licenciatura Intercultural Indígena,Não,"Formação para professores, com o objetivo de tornar a escola cada vez mais diferenciada.",Não,-,,-24.2005368,-47.3685134,,,,,,,SP,Diurno e Tarde,Sim,Sim,Não,
41,E.E.I Tekoa Mirim ,Praia Grande ,"Rua Serra da Leoa , Vila Mirim, Praia Grande , SP, 11717460",Tekoa Mirim ,,Merenda ,São Vicente ,Guarani Mbya ,Guarani Mbya ,2011,"Educação Infantil, Ensino Fundamental (Anos Iniciais - 1 sala multisseriada e Anos Finais - 1 sala multisseriada)  ",28,"Uma sala de aula provisória, dois banheiros e uma cozinha",Sim ,Sim,Sim,,,,,Sim ,Não ,Sim ,Em curso - Licenciatura Intercultural Indígena (Unifesp),,Sim ,Sim ,,,,,,,,"Gostaríamos de ter mais tempo de aula dedicado às línguas indígenas e aos saberes tradicionais, para que o ensino seja mais adequado às nossas crianças. Nosso modo de ensinar é muito diferente do não indígena, e precisamos de mais tempo para transmitir nossa cultura.  Além disso, é essencial que a alimentação escolar seja mais adequada, com uma merenda diferenciada, que respeite nossa cultura alimentar. É preciso considerar o período de resguardo das meninas, pois nem todos os alimentos são permitidos nessa fase. Atualmente, a comida fornecida pelo município não é apropriada para o nosso consumo.  Quanto aos materiais didáticos, gostaríamos que fossem em língua Guarani.  Sobre a estrutura física, não temos um prédio escolar adequado – hoje, contamos apenas com uma sala. Por isso, é urgente a construção da nossa escola.",,,,,,,Rua Serra da Leoa ,,,Vila Mirim,11717460 ,SP,Diurno e Vespertino ,,,,
16,E. E. I. Aldeia Takuari-ty,Cananéia,"Cananéia, SP",Pakurity,Estadual,Não,Registro,Guarani Mbya,Guarani Mbya e Português,,"Ensino Fundamental – Anos Iniciais (1° ao 5° ano) – 1 sala multisseriada
Ensino Fundamental – Anos Finais (6º ao 9º ano) – 1 sala multisseriada
Ensino Médio (1º ao 3º ano) – 1 sala multisseriada Turnos: Diurno e Vespertino",31,"Escola com estrutura provisória, duas salas, uma cozinha (pequena), um banheiro",Sim (estrutura ruim),Sim (uma vez por semana),Sim,"um computador, quatro notebooks, televisão (mas sem suporte), vinte tablets",A pé,"Sim, vice diretor/coordenador - Abilio",Uma merendeira e um auxiliar de limpeza,5,0,Sim,Sim/uma formada em pedagogia e um em formação na LINDI,Sim/Diretoria de Ensino (orientação técnica),Não,-,Livros didáticos,Não,"Plantio/roça, conversa com mais velhos, histórias, canto e dança",Avalia o aprendizado por meio da participação e por nota das atividades escritas e orais,Não,Não,"Tem uma pessoa, ponto de cultura","Ter uma estrutura melhor na escola, cozinha muito pequena, sem banheiro",Não,-,,-25.0118333,-47.9492211,,,,,,,SP,Diurno e Vespertino,Sim,Sim (muitas vezes com atraso),Não,
15,E.E.I Aldeia Santa Cruz,Cananéia,"Cananéia, SP",Pakurity,Estadual,Não,Registro,Guarani Mbya,Guarani Mbya e Português,2003,Ensino Fundamental - Anos Iniciais (1° ao 3°) Turnos: Diurno,8,"Escola com estrutura provisória, uma sala, uma cozinha pequena",Sim (estrutura ruim),Não,Não,Sem equipamentos tecnológicos,A pé,Não,um auxiliar de limpeza,1,0,Sim,Não/em formação na LINDI,,Não,-,Sem materiais pedagógicos específicos,Não,,,Não,Não,Não,,Não,-,,,,,,,,,,SP,Diurno,Sim,Sim (muitas vezes com atraso),Não,
4,E.E.I. Aldeia Ekeruá,Avaí,"Avaí, SP",Arariba,Estadual,Merenda escolar completa,Bauru,Terena,"Terena, Português e Inglês",2003,"Educação Infantil (Pré-escola I e Pré-escola II) – 1 sala multisseriada
Ensino Fundamental – Anos Iniciais (1º ano) – 1 sala regular
Ensino Fundamental – Anos Iniciais (2º e 3º anos) – 1 sala multisseriada
Ensino Fundamental – Anos Iniciais (4º e 5º anos) – 1 sala multisseriada
Ensino Fundamental – Anos Finais (7º ano) – 1 sala regular
Ensino Fundamental – Anos Finais (8º e 9º anos) – 1 sala multisseriada
Ensino Fundamental – Anos Finais – EJA (8º e 9º anos) – 1 sala multisseriada
Ensino Médio (1º ano) – 1 sala regular
Ensino Médio (2º e 3º anos) – 1 sala multisseriada
Ensino Médio – EJA (1º ao 3º ano) – 1 sala multisseriada
Turnos: Diurno, Tarde e Noturno",38,"Três salas de aula, uma sala de secretaria, três banheiros (sendo um acessível), uma cozinha, duas salas provisórias e um refeitório.",Sim,Não,Sim,"Computador, tablet, TV e notebook",A pé,"Vice-diretor/ Alicio Lipu 
Coordenadora/ Zélia Luiz (anos finais do EF e EM)
Coordenadora/ Tereza Silverio (infantil e anos iniciais do EF)
Uma Agente de Organização Escolar (AOE)","Uma Proat (auxílio aos professores na parte tecnológica)
Duas merendeiras
Uma ajudante de cozinha",12,0,Sim,Sim/Dez professores formados e outros em formação,Sim/Diretoria de Ensino (orientação técnica),Não,-,"Livros didáticos, Multimidia (Apostilas e cadernos digitais oferecidos pelo Estado - Seduc)",Sim (cartilhas na língua Terena),"Conversa com os mais velhos na escola e fora da escola, danças, prática de fazer na escola a culinária tradicional, brincadeiras indígenas, contação de histórias, desenhos, confeção de artesanatos, pintura corporal, plantio",Avaliação de participação e desempenho dos alunos,Não,"Unisagrado – Oferta de bolsas em cursos de graduação 
UNIFESP – Licenciatura Intercultural Indígena",Não,"Melhorias na infraestrutura, que precisa ser ampliada, incluindo sala de informática, sala de leitura, quadra de esportes para educação física, parquinhos adequados para o lazer das crianças e materiais didáticos na língua Terena.",Sim,-,,-22.2745556,-49.3729208,,,,,,,SP,"Diurno, Tarde e Noturno",Sim,Sim,Sim,
42,E.E.i Aldeia Piaçaguera,PERUIBE,"AVENIDA ÁREA RURAL,  KM 339, Area Rural de Peruibe, PERUIBE, SP, 11789-899",Piaçaguera,,,SAO VICENTE,Guarani Nhandewa,"Tupi Guarani, Guarani e Português",2009,"Educação Infantil, Ensino Fundamental 1, Ensino Fundamental 2 ",13,,,,,,,Vice diretora - Lilian Gomes Fernandes Securella,,3,0,Sim,"Sim, em formação na Licenciatura Intercultural Indígena",Não,Sim,Sim,,,,,Não,Não,Não,"Conhecimento necessário para sermos capazes de nos relacionar com a sociedade em condições de igualdade; Uma formação que nos capacite para elaborarmos projetos de futuro para nosso povo, na perspectiva da autossustentabilidade comunitária e familiar (formação profissional); Nos dê uma formação técnica, agrícola e ambiental; Uma formação que dê aos nossos jovens a capacidade de construir projetos de interculturalidade com outros indígenas e não indígenas; Fortalecimento da cultura em seus múltiplos aspectos: língua, dança, canto, ritos, histórias, arte material, alimentação, vestimenta, valores e costumes; Preparo de lideranças para defesa dos interesses comunitários e com a relação aos povos indígenas (interesses internos e externos); Liberdade de expressão; Respeito as diferenças; Participação, comunicação e respeito com a comunidade; Acompanhamento do desenvolvimento global sem esquecer as raízes; Produção de material etno – pedagógico e literário para fins de divulgação da cultura Tupi Guarani como forma de combater os preconceitos e a desinformação sobre o nosso povo; Promoção de intercâmbio entre as escolas indígenas e não indígenas; Trabalho com projetos integrados a projetos de etno desenvolvimento sustentável; Promoção de convenções para criar e atualizar adaptações da matemática, e da língua escrita voltada para a cultura Tupi Guarani (Guarani Nhandewa); Buscar o conhecimento em diversas fontes, por exemplo, museus, parques zoológicos, cinemas, aquários, centros, culturais e monumentos históricos.",,,"Tendo como prioridade uma educação diferenciada para as crianças. Os ensinamentos começaram a ser ministrados oralmente por professores anciãos e lideranças, ensinando os valores gerais dos
acontecimentos e a importância do fortalecimento da cultura. Formalizada a partir de junho de 2009 a sala, inicialmente foi vinculada à E.E.I. Aldeia Piaçaguera devido à luta das lideranças: Awá Djú (txeramõe na época), Dora Cunhã Djú (cacique na época), Domingos Awá Tatáendy (vice-cacique na época) e os (as) professores (as): Lenira Djatsy, Itámirim Mirian, Claudia Agwé, Tawdjú e Reginaldo Wewedjú, contando com apoio imprescindível de toda a comunidade, órgãos e pessoas que auxiliaram na construção da sala provisória. Hoje já não estamos mais vinculados, temos o nosso próprio CEI a qual foi autorizada para funcionamento na metade do ano de 2012. A partir daí somos autônomos e hoje temos a nossa escolinha que recebe a merenda do município e temos nela apoio fundamental principalmente na questão alimentar das nossas crianças, pois estamos sempre articulando, com todo cuidado, para que as refeições seja cada vez mais saudáveis e adequadas para a alimentação da nossa demanda. Também temos fortalecido espaços para a horta coletiva e plantações de vários tipos de alimentos (palmitos, bananas, inhames, batatas-doces através dos reflorestamentos as quais subsidiam na alimentação escolar. No ano de 2024 aguardamos a construção do prédio.",-24.2536484,-46.9107284,,AVENIDA ÁREA RURAL, KM 339,,Area Rural de Peruibe,11789-899,SP,"Matutino, Vespertino e Noturno",,,,
14,E. E. I. Rio do Azeite,Itariri,"Itariri, SP",Serra Itatins,Estadual,merenda (mas não chega todo mês e pouca quantidade),Miracatu,Guaraní Mbya e Tupi-Guarani,Guarani Mbya e Português,2003,"EF Anos Iniciais (1°, 2° e 3° ano) - 1 sala multiseriada
EM - EJA - (1º ao 3º ano) - 1 sala multisseriada
Turnos: diurno e noturno",6,"Escola com estrutura provisória, feito de tabuas finas de madeira, uma sala somente",Sim,Não,"Sim, mas não funciona bem","Um notebook, uma televisão",A pé,Não,um auxiliar de limpeza,2,0,Sim,Não/um em formação na LINDI,Sim/Diretoria de Ensino (orientação técnica),Não,-,Não,Não,atividade dos saberes tradicionais sobre plantio,Avaliação de participação e desempenho dos alunos,Não,Não,Não,"Que tenha uma estrutura oficial, pois estão em uma escola temporária há muitos anos. Melhoria na infraestrutura da escola, pois essa não tem banheiro, nem cozinha e nem merendeira.",Não,-,,-24.3429203,-47.1434468,,,,,,,SP,Diurno e noturno,Sim,Sim (muitas vezes com atraso),Não,
24,C.E.C.I. Tenondé Porã,São Paulo,"São Paulo, SP",Tenondé Porã,Municipal,,Sul 3,Guaraní Mbya,Guarani Mbya e Português,,Educação Infantil ,111,Infraestrutura: Laboratório de Informática,Sim,Sim,Sim,"Equipamentos: Impressora, Computador, Tablets (20 unidades)",Acesso por estrada de terra a partir da Estrada da Barragem,,,,,Sim,,,,,"Materiais pedagógicos: Infantil, Jogos, Artístico",Sim,,,,,,,sim,https://www.facebook.com/cecitenonde/?locale=pt_BR,,-23.8712571,-46.6606804,,,,,,,SP,Diurno,,,,
22,C.E.C.I. Jaraguá,São Paulo,"São Paulo, SP",Jaraguá,Municipal,,Sul 3,Guarani Mbya,Guarani Mbya e Português,,Educação Infantil idade 0 a 6 ,90/94,,Sim,Sim,Sim,,A pé,,,,,,,,,,Sem materiais pedagógicos específicos,Não,,,,,,,Sim,,,-23.4640446,-46.7534173,,,,,,,SP,Matutino e vespertino,,,,
8,E.E.I. Aldeia Karugwá,Barão de Antonina,"Barão de Antonina, SP",Karugwa,Estadual,Não,Itarare,Tupi Guarani e Pataxó,Tupi Guarani e Português,2014,,20,"Quatro salas de aula, uma sala de leitura, uma sala de informática, uma secretaria, um refeitório, uma cozinha, dois banheiros (sendo um acessível), um pátio, um quiosque para aula de artesanato e um campo de areia.",Sim,Sim,Sim,"Computador, tablet, impressora, TV e notebook",A pé,"Diretor/Wagner 
Coordenador/Emerson Mendes","Dois merendeiros, um auxiliar de limpeza",19,0,Sim,"Sim/professores formados em pedagogia, letras e educação física e outros em formação",Sim/Diretoria de Ensino (orientação técnica),Não,-,"Livros didáticos, Multimidia (Apostilas e cadernos digitais oferecidos pelo Estado - Seduc)",Sim (cartilhas na língua Tupi Guarani),"Confeção de artesanatos, plantio, cantos com o violão, conversa com os mais velhos, contação de histórias",Avaliação de participação e desempenho dos alunos e aplicação de provas com controle de faltas.,Projeto de oficinas de artesanato.,UNIFESP - Licenciatura Intercultural Indígena,Não,"Quadra de esportes, parquinho para as crianças e um barracão para contação de histórias.",Não,-,,-23.6029705,-49.5877526,,,,,,,SP,Ensino Integral e Noite,Sim,Sim,Não,
39,E. E. I. Nhandepouwa ,Itanhaem ,"Avenida Gentil Perez , 2680, Jardim Coronel , Itanhaem , SP",,,,SAO VICENTE,Tupi Guarani ,Tupi Guarani ,,"Educação Infantil, Ensino Fundamental (Anos Iniciais e Anos Finais). ",13,"Duas salas de aula, uma cozinha e um banheiro. Toda a estrutura foi feita pela comunidade. ",Sim ,Sim ,,,,Diretora/Laurinha da Silva ,,Sim ,Não ,Sim ,Em curso - Licenciatura Intercultural Indígena (Unifesp),,Não,,,,,,,,,"Precisamos de melhorias na estrutura escolar e mais atenção da Seduc (Secretaria de Educação) em relação aos materiais didáticos.  Além disso, é fundamental que as crianças recebam uma merenda de qualidade, com alimentos mais saudáveis e adequados às suas necessidades. ",,,,-24.1659515,-46.8723957,,Avenida Gentil Perez ,2680,,Jardim Coronel ,,SP,Diurno e Vespertino,,,,
32,E. E. I. Taguató-Águia,Iguape,"Iguape, SP",,,,Miracatu,Guaraní Mbyá,,,"Educação Infantil, Ensino Fundamental (Turnos: Diurno, Noturno)",,Sem infraestrutura específica registrada,Sim,Sim,Sim,Equipamentos: Impressora,,,,,,,,,,,Materiais pedagógicos: Artístico,Sim,,,,,,,Não,,,-24.6847793,-47.5179429,"https://www.youtube.com/embed/A79kDuycPs4 
",,,,,,SP,"Diurno, Noturno",,,,
29,E. E. I. Koe'ju,Miracatu,"Miracatu, SP",,,,Miracatu,Guaraní Mbyá,,,"Educação Infantil, Ensino Fundamental ",,Sem infraestrutura específica registrada,Sim,Não,Não,Equipamentos: Computador,,,,,,,,,,,"Materiais pedagógicos: Jogos, Artístico",Sim,,,,,,,Não,,,-24.1553114,-47.3383162,,,,,,,SP,"Diurno, Noturno",Sim,Não,,
40,E. E. I. Nhamandu Mirim,PERUIBE,"PERUIBE, SP",,,,SAO VICENTE,,,,,,,,,,,,,,,,,,,,,,,,,,,,,,,,,,,,,,,,SP,,,,,
45,E. E. I. Aguapeú,Mongaguá,"Avenida Aguapeu, Aguapeu, Mongaguá, SP, 11730 - 000",Aguapeu,,"Sim, merenda",São Vicente,Guarani Mbya,Guarani e Português,2017,Educação Infantil + Ensino Fundamental (Anos Iniciais e Anos Finais),55,,,,,,,,,,,,,,,,,,,,,,,,,,,-24.0468309,-46.6279054,,Avenida Aguapeu,,,Aguapeu,11730 - 000,SP,Matutino e Vespertino,,,,
47,E. E. I. Araçá Mirim,PARIQUERA-ACU,"PARIQUERA-ACU, SP",,,,REGISTRO,,,,,,,,,,,,,,,,,,,,,,,,,,,,,,,,-24.7493028,-47.8468891,,,,,,,SP,,,,,
46,E. E. I. Gwra Pepo,SAO PAULO,"SAO PAULO, SP",,,,SUL 3,,,,,,,,,,,,,,,,,,,,,,,,,,,,,,,,-23.8672935,-46.6503484,,,,,,,SP,,,,,
5,E. E. I. Aldeia Gwawirá,Iguape,"SN, SABAUNA, Iguape, SP, 11920-000",Gwawira,Estadual,Recebem frutas e verduras,Miracatu,Guarani Mbya,Guarani Mbya e Português,2004,"Educação Infantil (Pré-escola I) – 1 sala
Ensino Fundamental – Anos Iniciais (1º ao 3º ano) e (4º e 5º anos) – 2 salas multisseriadas
Ensino Fundamental – Anos Finais (6º ao 9º ano) – 1 sala multisseriada
Ensino Médio – Não há atendimento",22,"Duas salas de aula, uma sala de informática, três banheiros, duas salas de diretoria, um depósito, uma cozinha, uma despensa, um pátio/refeitório e cinco aparelhos de ar-condicionado.",Sim,Não,Sim,"Computador, tablet, notebook e TV",A pé,Não,Uma merendeira e uma auxiliar de limpeza,4,0,Sim,Não/Em formação,Sim/Diretoria de Ensino (orientação técnica),Não,-,"Livros didáticos, Multimidia (Apostilas e cadernos digitais oferecidos pelo Estado - Seduc)",Sim (cartilhas na língua guarani),"Contação de histórias, plantio, caminhada na mata, desenhos",Avaliação de participação e desempenho dos alunos,Não,UNIFESP - Licenciatura Intercultural Indígena,Não,"Diretor, vice-diretor, professores formados, secretário e inspetor.",Não,-,,-24.8050494,-47.7643205,,,,SN,SABAUNA,11920-000,SP, Diurno e Tarde,Sim,Sim,Não,
38,E. E. I. Aldeia Boa Vista,Ubatuba,"Ubatuba, SP",,,,Caraguatatuba,,,,,,,,,,,,,,,,,,,,,,,,,,,,,,,,-23.3675678,-44.9730986,,,,,,,SP,,,,,
43,E.E.I. Aldeia Bananal,PERUIBE,"PERUIBE, SP",,,,São Vicente,,,,,,,,,,,,,,,,,,,,,,,,,,,,,,,,-24.1803367,-46.9880783,,,,,,,SP,,,,,
37,E. E. I. Aldeia Rio Branco ,Itanhaem ,"Rua Rio Branco, Itanhaem , SP",Rio Branco ,,"Apoio com a merenda (frutas, verduras e produtos de limpeza). ",São Vicente ,Guarani Mbya ,,,"Educação Infantil (Pré escola I), Ensino Fundamental (do 1o ao 9o ano.) Salas Multisseriadas  ",18,,,,,,,,,Sim ,Nã0 ,Sim ,,,Não ,,,,,,,,,,,,,-24.9113445,-48.0213542,,Rua Rio Branco,,,,,SP,Manhã e Tarde,,,,
35,E. E. I. Aldeia Renascer,Ubatuba,"Ubatuba, SP",,,,Caraguatatuba,,,,,,,,,,,,,,,,,,,,,,,,,,,,,,,,-23.4760678,-45.1910062,https://www.youtube.com/embed/mRfa7KPkoMU,,,,,,SP,,,,,
44,E.E.Indígena Aldeia Kuaray Oea/ Sol Nascente,Mongaguá,"Avenida Aldeia Itaoca, SN, Aldeia Itaoca, Mongaguá, SP, 11730-000",,,"Sim, merenda",SAO VICENTE,Guarani,"Guarani, Português",,"Educação Infantil, Ensino Fundamental",28,,,,,,,,,,,,,,,,,,,,,,,,,,,,,,"Avenida Aldeia Itaoca, SN",,,Aldeia Itaoca,11730-000,SP,"Matutino, Vespertino",,,,
30,EMIG Nhembo’e Porã,Bertioga,"Bertioga, SP",,,,Santos,Guaraní,,,"Educação Infantil, Ensino Fundamental",,"Infraestrutura: Laboratório de Ciências, espaço para atividades extracurriculares",Sim,Sim,Sim,"Equipamentos: Impressora, Computador",,,,,,,,,,,"Materiais pedagógicos: Multimídia, Infantil, Jogos, Artístico",Sim,,,,,,,Não,,,-23.73004167,-45.81500667,,,,,,,SP,Diurno,,,,
6,E. E. I. Itapu Mirim,Registro,"Registro, SP",Tupã Reko,Estadual,Não,Registro,Ava Guarani,Guarani Mbya e Português,2013,"Ensino Fundamental – Anos Iniciais (1º ao 5º ano) – 1 sala multisseriada
Ensino Fundamental – Anos Finais (6º ao 9º ano) – 1 sala multisseriada
Ensino Médio (1º ao 3º ano) – 1 sala multisseriada
Turnos: Diurno e Tarde",8,"Duas salas de aula, uma cozinha e um banheiro.",Sim,Não,Não,"Computador, tablet, notebook e TV",A pé,Não,Uma merendeira e uma auxiliar de limpeza,3,0,Sim,Não/Em formação,Sim/Diretoria de Ensino (orientação técnica),Não,-,"Livros didáticos, Multimidia (Apostilas e cadernos digitais oferecidos pelo Estado - Seduc)",Sim (cartilhas na língua guarani),"Plantio, contação de história, caminhada pela comunidade, confecção de artesantos, brincadeiras",Avaliação de participação e desempenho dos alunos,Não,UNIFESP - Licenciatura Intercultural Indígena,Não,,Não,-,,-24.5119077,-48.0017894,,,,,,,SP,Diurno e Tarde,Sim,Sim,Não,
33,E. E. I. Txeru Ba'e kua-i,Bertioga,"Bertioga, SP",Ribeirão Silveira (Tekoha Morutï),,,Santos,"Guaraní, Kaingang",,,"Ensino Fundamental, Ensino Médio (Turnos: Diurno)",111,"Infraestrutura: Laboratório de Informática, espaço para atividades extracurriculares",Sim,Sim,Sim,"Equipamentos: Computador, Tablets (82 unidades)",,"Diretora: Patrícia Ferreira Silveira
Vice-Diretora: Lilian Aparecida da Silva
Coordenadores: Fernanda Kato Ramalho Lima e Glauco Gomes da Silva",,,,,,,,,Sem materiais pedagógicos específicos,Não,,,,,,,Sim,https://www.facebook.com/Txerubaekuai/,,-23.7301134,-45.8149539,,,,,,,SP,"Ensino Fundamental, Ensino Médio (Turnos: Diurno)",,,,
34,E.E.I Txondaro Tekoa Mbae,Barão de Antonina,"Barão de Antonina, SP",Karugwá,Estadual,,,Tupí-Guaraní,Tupi-Guarani e Português,2022,"Educação Infantil, Ensino Fundamental",10,Sem infraestrutura específica registrada,Sim,Sim,Não,Equipamentos: Tablets (8 unidades),,,,,,,,,,,Materiais pedagógicos: Artístico,Não,,,,,,"Construção de escola com infraestrutura adequada. Fonte: MPF 2024
https://www.mpf.mp.br/sp/sala-de-imprensa/noticias-sp/a-pedido-do-mpf-justica-ordena-apresentacao-de-plano-para-construcao-de-escola-em-aldeia-de-barao-de-antonina-sp/",Não,,,-23.6106417,-49.5824443,,,,,,,SP," Diurno, Noturno",,,,
21,E.E.I Aldeia Ywy Pyhau,Barão de Antonina,"Barão de Antonina, SP",,Estadual,,Itarare,?,,,Ensino Fundamental,,Sem infraestrutura específica registrada,Sim,Sim,Sim,Equipamentos: Tablets (2 unidades),,,,,,,,,,,"Materiais pedagógicos: Infantil, Artístico",Não,,,,,,,Não,,,-23.5999803,-49.5796772,,,,,,,SP,"Diurno, Noturno",,,,
18,E.E.I Aldeia Tekoá Porã,Itaporanga,"Itaporanga, SP",Tekoha Porã,Estadual,Não,Itarare,"Tupi-Guarani, Terena, Wassucocau, Cinta Larga, Kaingang",Tupi-Guarani e Português,,"Educação Infantil – 1 sala multisseriada
Ensino Fundamental – Anos Iniciais (2º e 3º anos) – 1 sala multisseriada
Ensino Fundamental – Anos Iniciais (5º ano) – 1 sala regular
Ensino Fundamental – Anos Iniciais (8º ano) – 1 sala regular
Ensino Fundamental – Anos Finais (9º ano) – 1 sala regular
Ensino Fundamental – Anos Iniciais – EJA (1º ao 5º ano) – 1 sala multisseriada
Ensino Médio (1º ano) – 1 sala regular
Ensino Médio – EJA (1º ao 3º ano) – 1 sala multisseriada",10,"Três salas, uma sala de informática, uma cozinha, um refeitório, uma sala do diretor (usa como sala de livros), três banheiros (um masculino, um feminino e um acessível",Sim,Sim,Sim,"sete computadores, cinco notebooks, dez tablets, três televisões",A pé,,,9.0,0.0,"Sim, exceto um que é do povo Cinta Larga e fala somente português",Sim/uma formada em pedagogia e um em formação na LINDI,Sim/Diretoria de Ensino (orientação técnica),"Começou, mas não finalizou",foi feito pela comunidade,"Livros didáticos, Multimidia (Apostilas e cadernos digitais oferecidos pelo Estado - Seduc)","Sim, livro em Tupi Guarani","Brincadeiras, cantos, artesanatos e feitura de roupas tipicas que são usadas para as apresentaçãoes de danças",Avaliação de participação,Não,Não,Não,Fortalecer a lingua materna e não tem um ancião para ajudar nisso,Não,-,https://docs.google.com/document/d/1-xCUDydhKbFjH8SeM-hzVwsDoZb13vDTMujx1k8bDm8/edit?usp=sharing,-23.6993902,,,,,,,,SP,"Diurno, Vespertino e Noturno",SIm,Sim,Não,
20,Escola Estadual Aldeia Uru'ity,Miracatu,"Praça principal do bairro, Musacea, Miracatu, SP, 11850-000",Ka´aguy Mirim,Estadual,Não,Miracatu,Guaraní Mbya,Guarani mbya e Português,2004,"Educação Infantil, Ensino Fundamental",6,"A escola tem construções de madeira, duas salas de aula, uma sala multiuso com computadores, cozinha, refeitório e banheiro acessível. Além disso, toda a área da comunidade — como a roça e a mata — é utilizada como espaço educativo.",Sim,Não,Sim,"dois computadores, quatro notebooks, quatro tablets, dua televisões, uma impressora",A pé,Sem diretor atualmente,Uma merendeira e um auxiliar de limpeza,3,0,todos,"Professores Karai Poty – Abílio Fernandes e Bruno Borges
em formação na Licenciatura Intercultural Indígena (UNIFESP) ","Sim, orientação tecnica",Não,,Materiais pedagógicos: Artístico,Sim,"Canticos, dança do tangará, brincadeiras indigenas",Avaliação do estado,Não,UNIFESP - Licenciatura Intercultural Indígena,Não,Queremos que o Estado reconheça de verdade a educação diferenciada índigena.,,,"<p>A Escola Estadual Indígena Aldeia Uru'ity foi solicitada pela comunidade local. A criação dessa escola foi para atender as crianças que estavam em idade escolar sem frequentar a escola. Essas crianças não sabiam falar português e os pais não as deixavam ir à escola porque previam dificuldades para entender o português e as explicações dos professores não indígenas.</p><p>Essas foram algumas das justificativas para o pedido de criação da escola. O pedido foi feito no mês de julho de 2004. Conversei com os mais velhos da minha comunidade, eles me contaram que a escola foi fundada em 2004. Nesse período eu morava na outra aldeia, ""Aldeia Rio Silveiras"".</p><p>A primeira escola era de barro. O barro para construir a escola a nossa avó doou para que as aulas pudessem acontecer. E depois foi construída a nova escola de madeirite e, então, se passaram mais ou menos 11 anos e, entre 2013 e 2014 mais ou menos, começaram a construir o novo prédio atual da escola, onde estamos dando aula hoje. Levou 4 anos para que a escola nova fosse entregue e, em 2016, ela foi inaugurada.</p>",-24.2639333,-47.3262522,https://www.youtube.com/embed/_6PuOnVIhEU?si=PQ1LIsq3DLY5ahbK,Praça principal do bairro,,,Musacea,11850-000,SP,Diurno,Sim,Sim,Não,https://cbzwrxmcuhsxehdrsrvi.supabase.co/storage/v1/object/public/imagens-das-escolas/20/20_1757166420623_2nxwt1.png
48,E. E. I. Aldeia Paranapuã,São Vicente,"São Vicente, SP",Paranapuã,,,,,,,Classe multiseriada,8,,,,,,,,,,,,,,,,,,,,,,,"A escola dos meus sonhos seria aquela em que o governo respeitasse e criasse leis que garantissem que cada escola indígena tivesse seus próprios calendários, e que suas crenças, rituais e culturas em geral fossem incluídos na educação indígena. Que cada ancião e anciã tivessem seus conhecimentos mais valorizados para serem conselheiros dentro das escolas. Esse é nosso sonho: uma escola totalmente diferenciada.",,,"<p>A vinculação da escola na aldeia Paranapuã ocorreu por volta dos anos de 2005 ou 2006. No início, não havia uma escola formal, mas sim uma sala improvisada pela própria comunidade para que as crianças pudessem ter acesso à educação. Somente entre 2012 e 2013, um vestiário abandonado foi transformado em uma escola improvisada, garantindo que as crianças da aldeia tivessem uma sala de aula e uma cozinha para o preparo da merenda escolar.</p><p>Depois de muita luta, no começo de 2022, a estrutura abandonada foi finalmente reformada para se tornar uma escola de verdade. No início de 2023, foi oficialmente inaugurada a E.E.I. Aldeia Paranapuã.</p><p>Um ponto positivo da escola é que temos o privilégio de realizar as atividades tanto dentro da sala de aula quanto ao ar livre. Podemos modificar ou alterar as atividades de acordo com os conhecimentos da nossa cultura, e as crianças têm a liberdade de usar suas vestimentas tradicionais, com as quais se sintam confortáveis, sem medo de serem coagidas por regras.</p><p>O ponto negativo é a falta de autonomia para criar nosso próprio calendário escolar, que deveria ser baseado em nossos costumes, tradições e cultura. Ainda dependemos da secretaria para a elaboração dos planos de aula e não temos nosso direito respeitado, mesmo havendo uma lei que garante essa autonomia aos povos indígenas.</p><h3><strong>MATERIAIS DIDÁTICOS USADOS NA SALA DE AULA</strong></h3><p>Para o desenvolvimento pedagógico, são utilizados diversos materiais. Livros escritos na língua materna são essenciais para aprimorar a escrita, a leitura e o conhecimento. Os cantos são uma forma de manter a identidade ancestral e o respeito à cultura. Já as brincadeiras promovem a interação, a coletividade e o respeito entre os alunos.</p><h3><strong>Tempo</strong></h3><p>O tempo da escola é organizado de acordo com o calendário que o estado determina para o funcionamento das aulas e das atividades.</p><h3><strong>Organização das turmas</strong></h3><p>A organização das turmas abrange do 1º ao 5º ano, com alunos que possuem idades entre 7 e 12 anos.</p><h3><strong>Pessoas da escola</strong></h3><p>Cada pessoa tem uma função específica dentro da escola, como cozinheira, professor, professora e faxineiro.</p><h3><strong>OFICINAS DE JOGOS</strong></h3><p>Escolhi dois jogos para trabalhar com meus alunos: o <strong>Jogo das Palavras</strong> e o <strong>Mandi'o</strong>, e fiz uma adaptação para uni-los em uma única atividade. A turma foi dividida em grupos de três ou quatro crianças para competirem entre si. O grupo que conseguisse formar mais palavras em guarani, usando sílabas também em guarani, ganhava o direito de ir arrancar uma mandioca (mandi'o) da plantação. No final, o grupo que colhesse mais mandiocas era o vencedor.</p><h3><strong>JOGO DAS PALAVRAS E MANDI'O</strong></h3><ul><li><strong>Nome:</strong> Jogo das Palavras e Mandi'o.</li><li><strong>Materiais:</strong> Papel, canetinha, sulfite e fita adesiva (durex).</li><li><strong>Local:</strong> Pode ser jogado no pátio da escola.</li><li><strong>Jogadores:</strong> Pode ser disputado em três ou quatro grupos.</li><li><strong>Como jogar:</strong> Os grupos jogam formando palavras em guarani com sílabas na mesma língua. Aquele que formar mais palavras e, consequentemente, tiver mais mandiocas colhidas, ganha.</li><li><strong>Uso da matemática:</strong> Sim, a matemática é utilizada na formação dos grupos, na contagem da pontuação e na quantidade da colheita da mandioca.</li><li><strong>Uso de outra língua:</strong> Não, somente a língua indígena é utilizada durante as atividades do jogo.</li><li><strong>Relação com a cultura:</strong> Sim, o jogo envolve a língua materna, o conhecimento do plantio e da colheita, além do vocabulário em guarani.</li></ul>",-23.9834354,-46.3825561,,,,,,,SP,,,,,https://cbzwrxmcuhsxehdrsrvi.supabase.co/storage/v1/object/public/imagens-das-escolas/48/48_1757095323990_vdl3nn.png
2,E.E.I. Karai Katu,Itariri,"Itariri, SP",Itariri - Serra do Itatins,Estadual,Merenda escolar completa,Miracatu,Guarani Mbya,Guarani Mbya e Português,2003,"Educação Infantil (Pré-escola I) – 1 sala regular
Ensino Fundamental – Anos Iniciais (1º ao 5º ano) – 1 sala multisseriada
Ensino Fundamental – Anos Iniciais – EJA (1º ao 5º ano) – 1 sala multisseriada
Ensino Fundamental – Anos Finais (6º ao 9º ano) – 2 salas multisseriadas
Ensino Médio (1º ao 3º ano) – 1 sala multisseriada
Ensino Médio – EJA (1º ao 3º ano) – 1 sala multisseriada
Turnos: Diurno, Tarde e Noite",19,"Quatro salas, um depósito, uma sala de informática, três banheiros, uma cozinha, uma despensa e um pátio/refeitório.",Sim,Não,Não,"Computador, tablet, TV e notebook",A pé,Não,Uma merendeira e um agente de limpeza,8,0,Sim,Sim/Três professores formados em pedagogia e outros em formação,Sim/Diretoria de Ensino (orientação técnica),Não,-,Livros didáticos,Sim (cartilhas na língua guarani),"Contação de histórias, cantos, danças, plantio, produção de artesanato, desenho, caminhada na mata",Avaliação de participação e desempenho dos alunos,"Projeto sobre o nome dos animais; Projeto com numeração indígena;
Projeto com a história dos xeramõi e xejaryi; Projeto de histórias Guarani e comidas tradicionais;
Projeto sobre o calendário Guarani.",UNIFESP - Licenciatura Intercultural Indígena,Não,"Que a escola se torne cada vez mais diferenciada, formando alunos para que sejam futuros professores na aldeia, preparando diretores da própria comunidade e fortalecendo, entre os jovens, o modo de vida Guarani.",Não,-,,,,,,,,,,SP,"Diurno, Tarde e Noite",Sim,Sim,Sim (os próprios professores levam),
11,EEI Aldeia Peguao-ty,Sete Barras,"Sete Barras, SP",Peguao-ty,Estadual,Não,Registro,Guarani Mbya,Guarani Mbya e Português,2011,Educação Infantil (Pré-escola I e Pré-escola II) – 1 sala multisseriadaEnsino Fundamental – Anos Iniciais (1º ao 4º ano) – 1 sala multisseriadaEnsino Fundamental – Anos Finais (6º ao 9º ano) – 1 sala multisseriadaEnsino Médio (1º ao 3º ano) – 1 sala multisseriada,23,"Uma cozinha, dois banheiros, duas salas de aula, um refeitório, uma sala de informática, uma sala dos professores e uma sala de diretor.",Sim,Não,Sim,"Computador, tablet, impressora, TV e notebook",A pé,Não,Uma merendeira e um auxiliar de limpeza,7,0,Sim,Sim/Um professor formado em pedagogia e outros em formação,Sim/Diretoria de Ensino (orientação técnica),Não,-,"Livros didáticos, Multimidia (Apostilas e cadernos digitais oferecidos pelo Estado - Seduc)",Sim (cartilhas na língua guarani),"Roda de conversa com os mais velhos, contação de histórias, mutirões de plantio, cantos, danças, desenhos, brincadeiras",Avaliação de participação e desempenho dos alunos. Para os alunos do Ensino Médio se aplica prova.,Não,"UFPR - Licenciatura em Educação do Campo,
UNIFESP - Licenciatura Intercultural Indígena",Não,"A escola deve garantir que os alunos aprendam sobre a cultura e a língua guarani, ao mesmo tempo em que recebem ensino em língua portuguesa e conteúdos do currículo oficial. Além disso, a escola deve reconhecer e integrar com maior profundidade os saberes e práticas culturais do povo guarani, como a medicina, a agricultura e o artesanato, no processo de ensino-aprendizagem.",,,,-24.2254968,-48.0610757,https://youtu.be/IsIJVA4ppOg,,,,,,SP,Diurno e Tarde,Sim,Sim,Não,https://cbzwrxmcuhsxehdrsrvi.supabase.co/storage/v1/object/public/imagens-das-escolas/11/11_1757697592511_u5kyrp.jpg
13,E.E.I. Aldeia Rio Branco II,Cananéia,"Cananéia, SP",Tapy'i,Estadual,Não,Registro,Guarani Mbya,Guarani Mbya e Português,2003,Ensino Fundamental – Anos Iniciais (4° e 5° ano) – 1 sala multisseriadaEnsino Fundamental – Anos Finais (6º ao 9º ano) – 1 sala multisseriada,9,"Uma sala, uma cozinha, dois banheiros, um refeitorio (área aberta)",Sim,Sim (a cada 15 dias),Sim (quando chove não funciona bem),"Um notebook, uma televisão",a pé,não,"Uma merendeira, um auxiliar de limpeza",3,0,sim,Não/um em formação na LINDI,Sim/Diretoria de Ensino (orientação técnica),Não,-,"Livros didáticos, Multimidia (Apostilas e cadernos digitais oferecidos pelo Estado - Seduc)",Não,"Saberes tradicionais: dança, cantico, trilhas e plantas medicinais, roça",Avaliação acontece fazendo um acompanhamento por meio da participação,Não,Não,Não,Preocupação em manter a cultura e valorização dos saberes da comunidade,Não,Não,,-24.92141776,-48.03072478,,,,,,,SP,Diurno e Vespertino,Sim,Sim (muitas vezes com atraso),Não,
28,E. E. I. Índia Vanuire,Arco-Íris,"Arco-Íris, SP",Terra Indígena Vanuire,Sim/Não,Sim/Não/Qual município,TUPA,"Kaingáng, Krenak",,,"Educação Infantil, Ensino Fundamental, Ensino Médio com EAD)",Total geral,Sem infraestrutura específica registrada,Sim,Sim,Sim,"Equipamentos: Impressora, Computador, Tablets (61 unidades)",Tem transporte? Qual?,,"Limpeza, merendeira",,,Sim/Não/Parcial,"Médio, Licenciatura, Intercultural etc. de cada um",Sim/Não/Descrição,Projeto Político Pedagógico específico,Sim/Não/Parcial,"Materiais pedagógicos: Multimídia, Infantil, Jogos, Artístico",Sim,"Ex: artesanato, roça, canto, etc.","Tradicional, diferenciada, oral, etc.",Descrever,Sim/Não/Quais?,Sim/Não/Quais?,Visões futuras,Não,,,-21.7943953,-50.3865004,,,,,,,SP,"Diurno, Noturno com EAD",,,,
25,E. E. I. Djekupe Amba Arandy,São Paulo,"São Paulo, SP",Jaraguá (Tekoa Ytu),Estadual,,Norte 1,Guaraní Mbya,Guarani Mbya e Português,2001,"Ensino Fundamental, Ensino Médio",249,Sem infraestrutura específica registrada,Sim,Sim,Sim,"Equipamentos: Impressora, Computador",,"Coordenadora: Ana Angelica Cordeiro de Sousa
Coordenador: Cassio Martim Pereira
Vice-Diretor(a): Jatiaci Fernandes Martins Pio
Coordenador: Luis Eduardo Zacarias",,,,Sim,,,,,Sem materiais pedagógicos específicos,Não,,,,,,,Não,https://www.instagram.com/escoladjekupeamba/,,-23.4640417,-46.7536112,,,,,,,SP," Diurno, Noturno com EAD",,,,
7,E. E. I. Itapuã,Iguape,"Iguape, SP",Ka'aguy Hovy,Estadual,Contratação de merendeira e apoio com transporte escolar,Miracatu,"Guarani Mbya, Nhandeva",Guarani Mbya e Português,2009,"Educação Infantil (Pré-escola I e Pré-escola II) – 1 sala multisseriada
Ensino Fundamental – Anos Iniciais (1º ao 4º ano) – 1 sala multisseriada
Ensino Fundamental – Anos Finais (6º ao 9º ano) – Atendidos em escola não indígena (temporariamente)
Ensino Médio – Não há atendimento
",5,"Duas salas, uma sala de informática, uma sala de professores, uma sala para diretor, dois banheiros, cozinha e refeitório.",Sim,Não,Sim,"Conmputador, tablet, impressora, TV e notebook",A pé e transporte escolar (perua) oferecido pela prefeitura,Não,"Uma merendeira, um auxiliar de limpeza",2,1,Sim,Não/Em formação,Sim/Diretoria de Ensino (orientação técnica),Não,-,"Livros didáticos, Multimidia (Apostilas e cadernos digitais oferecidos pelo Estado - Seduc)",Sim (cartilhas na língua guarani),"Mutirão de plantio, desenhos, caminhada na mata, colheita de semente, levar na opy para ouvir histórias e orientação dos mais velhos",Avaliação de participação e desempenho dos alunos,Não,UNIFESP - Licenciatura Intercultural Indígena,Não,"Alfabetização de jovens e adultos; que todas as crianças estudem na aldeia até o ensino médio; parquinho ou campo de futebol; uma pessoa para apoio escolar; e um profissional responsável pelo cuidado dos boletins e históricos escolares dos alunos (secretária, coordenação ou diretor Guarani).",,,,-23.4545935,-46.886784,,,,,,,SP,Diurno,Sim,Sim,Não,
17,E. E. I. Aldeia Taquari ,Eldorado,"Eldorado, SP",Taquari,Estadual,,Registro,,,,"Educação Infantil, Ensino Fundamental, Ensino Médio ",,Sem infraestrutura específica registrada,Sim,Sim,Não,Sem equipamentos tecnológicos registrados,,,,,,,,,,,Sem materiais pedagógicos específicos,Não,,,,,,,Sim,https://www.facebook.com/eeialdeiataquari,,-24.5652706,-48.2003742,,,,,,,SP,,,,,
19,E. E. I. Tereguá,Avaí,"Avaí, SP",Arariba,Estadual,merenda,Bauru,"Terena e Tupi-Guarani, Guarani Nhandewa, Guarani Mbya","Terena, Guarani, Português",2003,"Educação Infantil (Pré-escola I e Pré-escola II) – 1 sala multisseriada (revisar formatação)
Ensino Fundamental – Anos Iniciais (1º e 2º ano) – 1 sala multisseriada
Ensino Fundamental – Anos Iniciais (3º e 4° ano) – 1 sala multisseriada
Ensino Fundamental – Anos Iniciais (5º ano) – 1 sala regular / Ensino Fundamental – Anos Iniciais EJA (1º e 5° ano) – 1 sala multisseriada
Ensino Fundamental – Anos Finais (6º e 7º anos) – 1 sala multisseriada
Ensino Fundamental – Anos Finais (8º e 9º anos) – 1 sala multisseriada
Ensino Fundamental – Anos Finais – EJA (6º ao 9º ano) – 1 sala multisseriada
Ensino Médio – EJA (1º ao 3º ano) – 1 sala multisseriada
Turnos: Diurno, Vespertino e Noturno",40,"Três salas, uma sala de informática, uma cozinha, uma dispensa, um patio/refeitório, uma sala administrativa, três banheiros (um masculino, um feminino e um professor)",Sim,Sim,Sim,"dezessete notebooks, três desktop (notebook menor), oito tablets, três televisões, uma impressora (particular)",A pé,"Vice diretor - Richard, um coordenador pedagógico, um agente de organização escolar, um PROAT (professor que trabalha no apoio aos usos das ferramentas tecnológicas","um auxiliar de limpeza, duas cozinheiras, duas auxiliar de cozinha",15,0,Sim,Sim/pedagogia e educação fisica,Sim/Diretoria de Ensino (orientação técnica),Sim,"Funai, diretoria de ensino e comunidade","Materiais pedagógicos: Infantil, Jogos, Artístico","Sim, livro bilingue produzido na turma da licenciatura da USP","Saberes cantico, dança",,Não,Não,Não,"espaço recreativo, para brincar, um parquinho e ampliação da escola",Não,,,-22.30864547,-49.38266052,,,,,,,SP,"Diurno, Vespertino e Noturno",Sim,Sim,mandioca,
27,E.E.I. India Maria Rosa,Braúna,"Braúna, SP",,,,Penapolis,"Teréna, Tupi-Guarani",,,"Educação Infantil, Ensino Fundamental ",,Espaço para atividades extracurriculares,Sim,Sim,Sim,"Equipamentos: Computador, Tablets (24 unidades)",,,,,,,,,,,"Materiais pedagógicos: Multimídia, Infantil, Jogos",Não,,,,,,,Sim,,,-21.5655794,-50.3173178,,,,,,,SP,Diurno,,,,
23,C.E.C.I. Krukutu,São Paulo,"São Paulo, SP",Tenondé Porã,Estadual,,Sul 3,Guaraní Mbya,Guarani Mbya e Português,2004,Educação Infantil ,101,"Infraestrutura: Laboratório de Informática, espaço para atividades extracurriculares",Sim,Sim,Sim,"Equipamentos: Impressora, Computador, Tablets (30 unidades)","O acesso se dá por estrada de terra de aproximadamente 4 km, a partir da estrada da Barragem. Fonte: https://tenondepora.org.br/aldeias/tekoa-krukutu/?",Vice-Diretora: Edna Maria Siqueira Machado ,,,,Sim,,,,,"Materiais pedagógicos: Infantil, Jogos, Artístico",Sim,,,,,,,Sim,"https://www.facebook.com/p/CECI-Centro-de-Educa%C3%A7%C3%A3o-e-Cultura-Ind%C3%ADgena-Krukutu-100065006016058/, https://www.instagram.com/explore/locations/1335007613210403/ceci-centro-de-educacao-e-cultura-indigena-krukutu/",,-23.8646852,-46.6206452,,,,,,,SP,Diurno,"1 Cozinha, 1 Despensa, 1 Refeitório",,,
1,E. E. I. Aldeia Pindoty,Pariquera-Açu,"Pariquera-Açu, SP",Pindoty-Araça Mirim,Estadual,Recebem frutas e verduras,Registro,Guarani Mbya,Guarani Mbya e Português,2019,"Educação Infantil (Pré-escola I e Pré-escola II) – 1 sala multisseriada
Ensino Fundamental – Anos Iniciais (1º ao 5º ano) – 1 sala multisseriada
Ensino Fundamental – Anos Finais (6º, 7º e 8º anos) e Ensino Médio (1º e 2º anos) – 1 sala multisseriada
Ensino Médio (3º ano) – Não há atendimento
Turnos: Diurno",40,"Uma sala, dois banheiros (sendo um acessível), um refeitório e uma cozinha",Sim,Sim,Não,"Computador, tablet e TV",A pé,Vice-Diretor/ João Carlos Silveira,Uma merendeira e um agente de limpeza,6,0,Sim,Não/Em formação,Sim/Diretoria de Ensino (orientação técnica),Não,-,"Livros didáticos, Multimidia (Apostilas e cadernos digitais oferecidos pelo Estado - Seduc)",Sim (cartilhas na língua guarani),"Contação de histórias, cantos, danças, plantio",Avaliação de participação e desempenho dos alunos,Não,UNIFESP - Licenciatura Intercultural Indígena,Não,"Construção da escola, contratação de professores formados e desenvolvimento contínuo para que a escola se torne cada vez mais diferenciada.",,,,-24.7512413,-47.8643811,https://www.youtube.com/embed/rBXZkhe6Qmo?si=V11qXQNfpxRr1CRY,,,,,,SP,Diurno,Sim,Sim,,
10,E. E. I. Aldeia Nimuendaju,Avaí,"Avaí, SP",Arariba,Estadual,Contratação das merendeiras e merenda escolar,Bauru,"Tupi Guarani, Kaigang, Terena, Cruaia, Guarani Kaiowa, Guarani M'bya",Tupi Guarani e Português,2003,"Educação Infantil (Pré-escola I e Pré-escola II) – 1 sala multisseriada
Ensino Fundamental – Anos Iniciais (1º e 2º anos) – 1 sala multisseriada
Ensino Fundamental – Anos Iniciais (3º ano) – 1 sala regular
Ensino Fundamental – Anos Iniciais (4º e 5º anos) – 1 sala multisseriada
Ensino Fundamental – Anos Finais (6º e 7º anos) – 1 sala multisseriada
Ensino Fundamental – Anos Finais (8º e 9º anos) – 1 sala multisseriada
Ensino Fundamental – Anos Finais – EJA (6º ao 9º ano) – 1 sala multisseriada
Ensino Médio (1º e 2º anos) – 1 sala multisseriada
Ensino Médio (3º ano) – 1 sala regular
Ensino Médio – EJA (1º ao 3º ano) – 1 sala multisseriada",40,"Quatro salas de aula, uma sala dos professores, uma biblioteca, três banheiros, uma cozinha, uma secretaria e um pátio/refeitório.",Sim,Sim,Sim,"Computador, tablet, impressora, TV, notebook e projetor",A pé e/ou de carro ou bicicleta,"Vice-diretora/Creiles Marcolino da Silva Nunes
Coordenador/Gleidson Alves Marcolino","Três merendeiras, um auxiliar de limpeza, um agente de organização escolar, dois Proat",15,0,A maioria dos professores,"Sim/professores formados em letras, história, biologia, pedagogia e outros em formação",Sim/Diretoria de Ensino (orientação técnica) e EFAP,Sim,Sim,"Livros didáticos, Multimidia (Apostilas e cadernos digitais oferecidos pelo Estado - Seduc)","Sim (livros de gramática, história, cartilhas na lingua Tupi Guarani Nhandewa)","Visitas aos mais velhos, contação de histórias, plantio, cantos, danças, desenhos, brincadeiras",Avaliação de participação e desempenho dos alunos e aplicação de provas.,Projeto de reflorestamento,"Unisagrado – oferta de bolsas em cursos de graduação
USP – trabalho colaborativo em museologia
UNICAMP – realização de trabalhos sobre a gramática da língua Tupi-Guarani
UNIFESP – Licenciatura Intercultural Indígena",Não,"Quadra esportiva, parquinho, criação de outros espaços para aulas de saberes tradicionais, não realizar avaliações estaduais nem utilizar plataformas digitais, e fortalecer a educação diferenciada.",,,,-22.2905568,-49.3772743,,,,,,,SP,"Diurno, Tarde e Noite",Sim,Sim,Sim (cardápio escolhido pela comunidade),https://cbzwrxmcuhsxehdrsrvi.supabase.co/storage/v1/object/public/imagens-das-escolas/10/10_1757695258734_6tfe9h.jpeg